ALOS (DAICHI)           
1 28931U 06002A   26025.47615810  .00002451  00000+0  42025-3 0  9995
2 28931  98.1152 341.6741 0002177  80.3301 279.8150 14.69652336 67133
H-2A R/B                
1 28932U 06002B   26025.37553766  .00012490  00000+0  63869-3 0  9999
2 28932  98.2342 168.7277 0053899  29.8090 330.6192 15.15531465 87874
RESURS-DK 1             
1 29228U 06021A   26025.28649556  .00004301  00000+0  25277-3 0  9995
2 29228  69.9347 349.2719 0005127 216.7107 143.3709 15.12456689 80964
CZ-4B R/B               
1 29507U 06046C   26025.39494127  .00008079  00000+0  41288-3 0  9992
2 29507  97.5678  70.4161 0034918  59.0050 301.4605 15.16401746 53484
CZ-2C R/B               
1 31114U 07010B   26025.32844384  .00000251  00000+0  13405-3 0  9992
2 31114  98.3972 140.7861 0059954  60.9297 299.7867 14.20230221973567
COSMO-SKYMED 1          
1 31598U 07023A   26025.53313480  .00006312  00000+0  56545-3 0  9999
2 31598  97.8849 216.2325 0001352  89.7676 270.3700 14.96161924  8457
COSMOS 2428             
1 31792U 07029A   26025.13706397  .00000465  00000+0  27555-3 0  9992
2 31792  70.9402 294.7682 0006315 326.4429  33.6291 14.12920147957948
SL-16 R/B               
1 31793U 07029B   26025.38743584 -.00000006  00000+0  21939-4 0  9992
2 31793  70.9736 263.4094 0001928 271.9832 260.8876 14.14822241959242
KORONAS-FOTON           
1 33504U 09003A   26025.30710364  .00015933  00000+0  36986-3 0  9991
2 33504  82.4326 320.9332 0009766 323.9836  36.0751 15.42191304939054
CZ-2C R/B               
1 37731U 11030B   26025.45307939  .00002124  00000+0  27389-3 0  9991
2 37731  97.8476 343.6109 0053822 129.9799 344.9694 14.81052721783699
H-2A R/B                
1 38341U 12025E   26025.49092801  .00005131  00000+0  46821-3 0  9990
2 38341  98.4655 349.1189 0046194  93.8918 266.7583 14.94771969741764
SHIJIAN-16 (SJ-16)      
1 39358U 13057A   26025.52053887  .00002490  00000+0  24650-3 0  9991
2 39358  74.9717 266.8059 0017500 218.7170 141.2765 14.92201751665061
