CCSDS_OMM_VERS = 2.0
CREATION_DATE  = 
ORIGINATOR     = 

OBJECT_NAME    = ALOS (DAICHI)
OBJECT_ID      = 2006-002A
CENTER_NAME    = EARTH
REF_FRAME      = TEME
TIME_SYSTEM    = UTC
MEAN_ELEMENT_THEORY = SGP/SGP4

EPOCH          = 2026-01-25T11:25:40.059840
MEAN_MOTION    = 14.69652336
ECCENTRICITY   = .0002177
INCLINATION    = 98.1152
RA_OF_ASC_NODE = 341.6741
ARG_OF_PERICENTER = 80.3301
MEAN_ANOMALY   = 279.8150

EPHEMERIS_TYPE = 0
CLASSIFICATION_TYPE = U
NORAD_CAT_ID   = 28931
ELEMENT_SET_NO = 999
REV_AT_EPOCH   = 6713
BSTAR          = .42025E-3
MEAN_MOTION_DOT = .2451E-4
MEAN_MOTION_DDOT = 0

CCSDS_OMM_VERS = 2.0
CREATION_DATE  = 
ORIGINATOR     = 

OBJECT_NAME    = H-2A R/B
OBJECT_ID      = 2006-002B
CENTER_NAME    = EARTH
REF_FRAME      = TEME
TIME_SYSTEM    = UTC
MEAN_ELEMENT_THEORY = SGP/SGP4

EPOCH          = 2026-01-25T09:00:46.453824
MEAN_MOTION    = 15.15531465
ECCENTRICITY   = .0053899
INCLINATION    = 98.2342
RA_OF_ASC_NODE = 168.7277
ARG_OF_PERICENTER = 29.8090
MEAN_ANOMALY   = 330.6192

EPHEMERIS_TYPE = 0
CLASSIFICATION_TYPE = U
NORAD_CAT_ID   = 28932
ELEMENT_SET_NO = 999
REV_AT_EPOCH   = 8787
BSTAR          = .63869E-3
MEAN_MOTION_DOT = .1249E-3
MEAN_MOTION_DDOT = 0

CCSDS_OMM_VERS = 2.0
CREATION_DATE  = 
ORIGINATOR     = 

OBJECT_NAME    = RESURS-DK 1
OBJECT_ID      = 2006-021A
CENTER_NAME    = EARTH
REF_FRAME      = TEME
TIME_SYSTEM    = UTC
MEAN_ELEMENT_THEORY = SGP/SGP4

EPOCH          = 2026-01-25T06:52:33.216384
MEAN_MOTION    = 15.12456689
ECCENTRICITY   = .0005127
INCLINATION    = 69.9347
RA_OF_ASC_NODE = 349.2719
ARG_OF_PERICENTER = 216.7107
MEAN_ANOMALY   = 143.3709

EPHEMERIS_TYPE = 0
CLASSIFICATION_TYPE = U
NORAD_CAT_ID   = 29228
ELEMENT_SET_NO = 999
REV_AT_EPOCH   = 8096
BSTAR          = .25277E-3
MEAN_MOTION_DOT = .4301E-4
MEAN_MOTION_DDOT = 0

CCSDS_OMM_VERS = 2.0
CREATION_DATE  = 
ORIGINATOR     = 

OBJECT_NAME    = CZ-4B R/B
OBJECT_ID      = 2006-046C
CENTER_NAME    = EARTH
REF_FRAME      = TEME
TIME_SYSTEM    = UTC
MEAN_ELEMENT_THEORY = SGP/SGP4

EPOCH          = 2026-01-25T09:28:42.925728
MEAN_MOTION    = 15.16401746
ECCENTRICITY   = .0034918
INCLINATION    = 97.5678
RA_OF_ASC_NODE = 70.4161
ARG_OF_PERICENTER = 59.0050
MEAN_ANOMALY   = 301.4605

EPHEMERIS_TYPE = 0
CLASSIFICATION_TYPE = U
NORAD_CAT_ID   = 29507
ELEMENT_SET_NO = 999
REV_AT_EPOCH   = 5348
BSTAR          = .41288E-3
MEAN_MOTION_DOT = .8079E-4
MEAN_MOTION_DDOT = 0

CCSDS_OMM_VERS = 2.0
CREATION_DATE  = 
ORIGINATOR     = 

OBJECT_NAME    = CZ-2C R/B
OBJECT_ID      = 2007-010B
CENTER_NAME    = EARTH
REF_FRAME      = TEME
TIME_SYSTEM    = UTC
MEAN_ELEMENT_THEORY = SGP/SGP4

EPOCH          = 2026-01-25T07:52:57.547776
MEAN_MOTION    = 14.20230221
ECCENTRICITY   = .0059954
INCLINATION    = 98.3972
RA_OF_ASC_NODE = 140.7861
ARG_OF_PERICENTER = 60.9297
MEAN_ANOMALY   = 299.7867

EPHEMERIS_TYPE = 0
CLASSIFICATION_TYPE = U
NORAD_CAT_ID   = 31114
ELEMENT_SET_NO = 999
REV_AT_EPOCH   = 97356
BSTAR          = .13405E-3
MEAN_MOTION_DOT = .251E-5
MEAN_MOTION_DDOT = 0

CCSDS_OMM_VERS = 2.0
CREATION_DATE  = 
ORIGINATOR     = 

OBJECT_NAME    = COSMO-SKYMED 1
OBJECT_ID      = 2007-023A
CENTER_NAME    = EARTH
REF_FRAME      = TEME
TIME_SYSTEM    = UTC
MEAN_ELEMENT_THEORY = SGP/SGP4

EPOCH          = 2026-01-25T12:47:42.846720
MEAN_MOTION    = 14.96161924
ECCENTRICITY   = .0001352
INCLINATION    = 97.8849
RA_OF_ASC_NODE = 216.2325
ARG_OF_PERICENTER = 89.7676
MEAN_ANOMALY   = 270.3700

EPHEMERIS_TYPE = 0
CLASSIFICATION_TYPE = U
NORAD_CAT_ID   = 31598
ELEMENT_SET_NO = 999
REV_AT_EPOCH   = 845
BSTAR          = .56545E-3
MEAN_MOTION_DOT = .6312E-4
MEAN_MOTION_DDOT = 0

CCSDS_OMM_VERS = 2.0
CREATION_DATE  = 
ORIGINATOR     = 

OBJECT_NAME    = COSMOS 2428
OBJECT_ID      = 2007-029A
CENTER_NAME    = EARTH
REF_FRAME      = TEME
TIME_SYSTEM    = UTC
MEAN_ELEMENT_THEORY = SGP/SGP4

EPOCH          = 2026-01-25T03:17:22.327008
MEAN_MOTION    = 14.12920147
ECCENTRICITY   = .00063159
INCLINATION    = 70.9402
RA_OF_ASC_NODE = 294.7682
ARG_OF_PERICENTER = 326.4429
MEAN_ANOMALY   = 33.6291

EPHEMERIS_TYPE = 0
CLASSIFICATION_TYPE = U
NORAD_CAT_ID   = 31792
ELEMENT_SET_NO = 999
REV_AT_EPOCH   = 95794
BSTAR          = .27554839E-3
MEAN_MOTION_DOT = .465E-5
MEAN_MOTION_DDOT = 0

CCSDS_OMM_VERS = 2.0
CREATION_DATE  = 
ORIGINATOR     = 

OBJECT_NAME    = SL-16 R/B
OBJECT_ID      = 2007-029B
CENTER_NAME    = EARTH
REF_FRAME      = TEME
TIME_SYSTEM    = UTC
MEAN_ELEMENT_THEORY = SGP/SGP4

EPOCH          = 2026-01-25T09:17:54.456576
MEAN_MOTION    = 14.14822241
ECCENTRICITY   = .0001928
INCLINATION    = 70.9736
RA_OF_ASC_NODE = 263.4094
ARG_OF_PERICENTER = 271.9832
MEAN_ANOMALY   = 260.8876

EPHEMERIS_TYPE = 0
CLASSIFICATION_TYPE = U
NORAD_CAT_ID   = 31793
ELEMENT_SET_NO = 999
REV_AT_EPOCH   = 95924
BSTAR          = .21939E-4
MEAN_MOTION_DOT = -.6E-7
MEAN_MOTION_DDOT = 0

CCSDS_OMM_VERS = 2.0
CREATION_DATE  = 
ORIGINATOR     = 

OBJECT_NAME    = KORONAS-FOTON
OBJECT_ID      = 2009-003A
CENTER_NAME    = EARTH
REF_FRAME      = TEME
TIME_SYSTEM    = UTC
MEAN_ELEMENT_THEORY = SGP/SGP4

EPOCH          = 2026-01-25T07:22:13.754496
MEAN_MOTION    = 15.42191304
ECCENTRICITY   = .0009766
INCLINATION    = 82.4326
RA_OF_ASC_NODE = 320.9332
ARG_OF_PERICENTER = 323.9836
MEAN_ANOMALY   = 36.0751

EPHEMERIS_TYPE = 0
CLASSIFICATION_TYPE = U
NORAD_CAT_ID   = 33504
ELEMENT_SET_NO = 999
REV_AT_EPOCH   = 93905
BSTAR          = .36986E-3
MEAN_MOTION_DOT = .15933E-3
MEAN_MOTION_DDOT = 0

CCSDS_OMM_VERS = 2.0
CREATION_DATE  = 
ORIGINATOR     = 

OBJECT_NAME    = CZ-2C R/B
OBJECT_ID      = 2011-030B
CENTER_NAME    = EARTH
REF_FRAME      = TEME
TIME_SYSTEM    = UTC
MEAN_ELEMENT_THEORY = SGP/SGP4

EPOCH          = 2026-01-25T10:52:26.059296
MEAN_MOTION    = 14.81052721
ECCENTRICITY   = .0053822
INCLINATION    = 97.8476
RA_OF_ASC_NODE = 343.6109
ARG_OF_PERICENTER = 129.9799
MEAN_ANOMALY   = 344.9694

EPHEMERIS_TYPE = 0
CLASSIFICATION_TYPE = U
NORAD_CAT_ID   = 37731
ELEMENT_SET_NO = 999
REV_AT_EPOCH   = 78369
BSTAR          = .27389E-3
MEAN_MOTION_DOT = .2124E-4
MEAN_MOTION_DDOT = 0

CCSDS_OMM_VERS = 2.0
CREATION_DATE  = 
ORIGINATOR     = 

OBJECT_NAME    = H-2A R/B
OBJECT_ID      = 2012-025E
CENTER_NAME    = EARTH
REF_FRAME      = TEME
TIME_SYSTEM    = UTC
MEAN_ELEMENT_THEORY = SGP/SGP4

EPOCH          = 2026-01-25T11:46:56.180064
MEAN_MOTION    = 14.94771969
ECCENTRICITY   = .0046194
INCLINATION    = 98.4655
RA_OF_ASC_NODE = 349.1189
ARG_OF_PERICENTER = 93.8918
MEAN_ANOMALY   = 266.7583

EPHEMERIS_TYPE = 0
CLASSIFICATION_TYPE = U
NORAD_CAT_ID   = 38341
ELEMENT_SET_NO = 999
REV_AT_EPOCH   = 74176
BSTAR          = .46821E-3
MEAN_MOTION_DOT = .5131E-4
MEAN_MOTION_DDOT = 0

CCSDS_OMM_VERS = 2.0
CREATION_DATE  = 
ORIGINATOR     = 

OBJECT_NAME    = SHIJIAN-16 (SJ-16)
OBJECT_ID      = 2013-057A
CENTER_NAME    = EARTH
REF_FRAME      = TEME
TIME_SYSTEM    = UTC
MEAN_ELEMENT_THEORY = SGP/SGP4

EPOCH          = 2026-01-25T12:29:34.558368
MEAN_MOTION    = 14.92201751
ECCENTRICITY   = .00175
INCLINATION    = 74.9717
RA_OF_ASC_NODE = 266.8059
ARG_OF_PERICENTER = 218.7170
MEAN_ANOMALY   = 141.2765

EPHEMERIS_TYPE = 0
CLASSIFICATION_TYPE = U
NORAD_CAT_ID   = 39358
ELEMENT_SET_NO = 999
REV_AT_EPOCH   = 66506
BSTAR          = .2465E-3
MEAN_MOTION_DOT = .249E-4
MEAN_MOTION_DDOT = 0

